{
  "type": "Feature",
  "geometry": {
    "type": "LineString",
    "coordinates": [
      [
        2.5,
        51.5
      ],
      [
        2.519221,
        51.504366
      ],
      [
        2.538444,
        51.508732
      ],
      [
        2.557669,
        51.513097
      ],
      [
        2.576896,
        51.517463
      ]
    ]
  },
  "properties": {
    "investigation_id": "inv-api",
    "spill_detection_id": "spill-api-1",
    "wind_asset_id": "04901e62-1a5a-4dff-871c-f6b01be22f72",
    "current_asset_id": "056bc50c-9407-4540-bbbd-0278fb62543b",
    "model_version": "leeway_euler_v1",
    "observation_time": "2024-06-01T12:00:00+00:00",
    "origin_lon": 2.5,
    "origin_lat": 51.5,
    "endpoint_lon": 2.576896,
    "endpoint_lat": 51.517463,
    "total_duration_hours": 4.0,
    "step_hours": 1.0,
    "leeway_fraction": 0.035,
    "step_count": 4,
    "total_distance_m": 5664.96,
    "termination_status": "completed",
    "forcing_mode": "current_plus_windage",
    "forcing_modes": [
      "current_plus_windage"
    ],
    "current_fallback_used": false,
    "scientific_note": "Deterministic Leeway-Euler baseline model. \u03b1=0.035 is not calibrated. Not an operational forecast."
  }
}