{
  "type": "FeatureCollection",
  "features": [
    {
      "type": "Feature",
      "geometry": {
        "type": "LineString",
        "coordinates": [
          [
            2.5,
            51.5
          ],
          [
            2.480779,
            51.495634
          ],
          [
            2.461559,
            51.491268
          ],
          [
            2.442342,
            51.486903
          ]
        ]
      },
      "properties": {
        "feature_kind": "backward_drift_centerline",
        "investigation_id": "inv-api-d3",
        "spill_detection_id": "spill-d3-api",
        "observation_time": "2024-06-02T12:00:00+00:00",
        "source_time": "2024-06-02T09:00:00+00:00",
        "lookback_hours": 3.0,
        "step_count": 3,
        "total_backward_distance_m": 4249.08,
        "termination_status": "completed",
        "forcing_mode": "current_plus_windage",
        "forcing_modes": [
          "current_plus_windage"
        ],
        "current_fallback_used": false
      }
    },
    {
      "type": "Feature",
      "geometry": {
        "type": "Polygon",
        "coordinates": [
          [
            [
              2.4711944,
              51.486903
            ],
            [
              2.47064,
              51.490408
            ],
            [
              2.4689982,
              51.4937784
            ],
            [
              2.4663319,
              51.4968845
            ],
            [
              2.4627438,
              51.499607
            ],
            [
              2.4583716,
              51.5018414
            ],
            [
              2.4533833,
              51.5035016
            ],
            [
              2.4479708,
              51.504524
            ],
            [
              2.442342,
              51.5048692
            ],
            [
              2.4367132,
              51.504524
            ],
            [
              2.4313007,
              51.5035016
            ],
            [
              2.4263124,
              51.5018414
            ],
            [
              2.4219402,
              51.499607
            ],
            [
              2.4183521,
              51.4968845
            ],
            [
              2.4156858,
              51.4937784
            ],
            [
              2.414044,
              51.490408
            ],
            [
              2.4134896,
              51.486903
            ],
            [
              2.414044,
              51.483398
            ],
            [
              2.4156858,
              51.4800276
            ],
            [
              2.4183521,
              51.4769215
            ],
            [
              2.4219402,
              51.474199
            ],
            [
              2.4263124,
              51.4719646
            ],
            [
              2.4313007,
              51.4703044
            ],
            [
              2.4367132,
              51.469282
            ],
            [
              2.442342,
              51.4689368
            ],
            [
              2.4479708,
              51.469282
            ],
            [
              2.4533833,
              51.4703044
            ],
            [
              2.4583716,
              51.4719646
            ],
            [
              2.4627438,
              51.474199
            ],
            [
              2.4663319,
              51.4769215
            ],
            [
              2.4689982,
              51.4800276
            ],
            [
              2.47064,
              51.483398
            ],
            [
              2.4711944,
              51.486903
            ]
          ]
        ]
      },
      "properties": {
        "feature_kind": "source_candidate_zone",
        "investigation_id": "inv-api-d3",
        "spill_detection_id": "spill-d3-api",
        "source_time": "2024-06-02T09:00:00+00:00",
        "center_lon": 2.442342,
        "center_lat": 51.486903,
        "uncertainty_radius_km": 2.0,
        "termination_status": "completed",
        "scientific_framing": "Heuristic analytical uncertainty envelope. NOT a 95% confidence region, probability distribution, or statistically calibrated uncertainty."
      }
    }
  ]
}