{
  "features": [],
  "properties": {
    "analyzed_vessel_count": 1,
    "behavioral_intelligence_id": "beh-intel-spill-beh-api-1",
    "candidate_generation_id": "cand-gen-api",
    "generated_at": "2026-09-15T20:14:25.864497+00:00",
    "investigation_id": "inv-beh-api",
    "source_estimate_id": "source-spill-beh-api-1-inv-beh-api",
    "spill_detection_id": "spill-beh-api-1",
    "total_anomalies_detected": 0,
    "total_transmission_gaps_detected": 0,
    "trajectory_analysis_id": null,
    "zero_fabrication": true
  },
  "type": "FeatureCollection"
}